$$SOE
2460714.500000000, A.D. 2025-Feb-08 00:00:00.0000, -2.703469017854331E+08, -6.233725666724473E+08, 5.271698783464015E+06,
2460721.500000000, A.D. 2025-Feb-15 00:00:00.0000, -2.634400338511363E+08, -6.270978496024641E+08, 5.291120500777423E+06,
2460728.500000000, A.D. 2025-Feb-22 00:00:00.0000, -2.564925293754158E+08, -6.307264723828336E+08, 5.309726406635225E+06,
2460735.500000000, A.D. 2025-Mar-01 00:00:00.0000, -2.495055797569964E+08, -6.342581743564950E+08, 5.327515984150231E+06,
2460742.500000000, A.D. 2025-Mar-08 00:00:00.0000, -2.424803717096575E+08, -6.376927055334380E+08, 5.344488643110991E+06,
2460749.500000000, A.D. 2025-Mar-15 00:00:00.0000, -2.354180873267233E+08, -6.410298245888568E+08, 5.360643874275565E+06,
2460756.500000000, A.D. 2025-Mar-22 00:00:00.0000, -2.283199063559033E+08, -6.442692982790004E+08, 5.375981492081761E+06,
2460763.500000000, A.D. 2025-Mar-29 00:00:00.0000, -2.211870071067432E+08, -6.474109031166897E+08, 5.390501568585604E+06,
2460770.500000000, A.D. 2025-Apr-05 00:00:00.0000, -2.140205656654928E+08, -6.504544261684114E+08, 5.404204285004258E+06,
2460777.500000000, A.D. 2025-Apr-12 00:00:00.0000, -2.068217553434746E+08, -6.533996648688278E+08, 5.417089885741293E+06,
2460784.500000000, A.D. 2025-Apr-19 00:00:00.0000, -1.995917465461982E+08, -6.562464267336001E+08, 5.429158679766357E+06,
2460791.500000000, A.D. 2025-Apr-26 00:00:00.0000, -1.923317067915486E+08, -6.589945291729683E+08, 5.440411047578573E+06,
2460798.500000000, A.D. 2025-May-03 00:00:00.0000, -1.850428007632954E+08, -6.616437993862467E+08, 5.450847444664985E+06,
2460805.500000000, A.D. 2025-May-10 00:00:00.0000, -1.777261903711838E+08, -6.641940743279227E+08, 5.460468399350882E+06,
2460812.500000000, A.D. 2025-May-17 00:00:00.0000, -1.703830347806667E+08, -6.666452007858334E+08, 5.469274498174727E+06,
2460819.500000000, A.D. 2025-May-24 00:00:00.0000, -1.630144902381132E+08, -6.689970356254734E+08, 5.477266338283241E+06,
2460826.500000000, A.D. 2025-May-31 00:00:00.0000, -1.556217092735071E+08, -6.712494458892272E+08, 5.484444433883965E+06,
2460833.500000000, A.D. 2025-Jun-07 00:00:00.0000, -1.482058396814633E+08, -6.734023075455720E+08, 5.490809211969316E+06,
2460840.500000000, A.D. 2025-Jun-14 00:00:00.0000, -1.407680256450246E+08, -6.754555035548238E+08, 5.496361259689152E+06,
2460847.500000000, A.D. 2025-Jun-21 00:00:00.0000, -1.333094097852465E+08, -6.774089245225527E+08, 5.501101444426745E+06,
2460854.500000000, A.D. 2025-Jun-28 00:00:00.0000, -1.258311330082565E+08, -6.792624701761124E+08, 5.505030763901889E+06,
2460861.500000000, A.D. 2025-Jul-05 00:00:00.0000, -1.183343336666158E+08, -6.810160495079039E+08, 5.508150241727442E+06,
2460868.500000000, A.D. 2025-Jul-12 00:00:00.0000, -1.108201472260772E+08, -6.826695803905182E+08, 5.510460911919445E+06,
2460875.500000000, A.D. 2025-Jul-19 00:00:00.0000, -1.032897062481679E+08, -6.842229892385257E+08, 5.511963828055322E+06,
2460882.500000000, A.D. 2025-Jul-26 00:00:00.0000, -9.574414047860132E+07, -6.856762107731866E+08, 5.512660073281616E+06,
2460889.500000000, A.D. 2025-Aug-02 00:00:00.0000, -8.818457697602445E+07, -6.870291878681557E+08, 5.512550767039746E+06,
2460896.500000000, A.D. 2025-Aug-09 00:00:00.0000, -8.061214025757176E+07, -6.882818714905627E+08, 5.511637065299720E+06,
2460903.500000000, A.D. 2025-Aug-16 00:00:00.0000, -7.302795238419886E+07, -6.894342208004470E+08, 5.509920142248154E+06,
2460910.500000000, A.D. 2025-Aug-23 00:00:00.0000, -6.543313269314548E+07, -6.904862033918591E+08, 5.507401128155351E+06,
2460917.500000000, A.D. 2025-Aug-30 00:00:00.0000, -5.782879684862942E+07, -6.914377949613919E+08, 5.504081031848848E+06,
2460924.500000000, A.D. 2025-Sep-06 00:00:00.0000, -5.021605662898432E+07, -6.922889774035686E+08, 5.499960859871626E+06,
2460931.500000000, A.D. 2025-Sep-13 00:00:00.0000, -4.259602212093963E+07, -6.930397378154509E+08, 5.495041882895947E+06,
2460938.500000000, A.D. 2025-Sep-20 00:00:00.0000, -3.496980304755072E+07, -6.936900700545816E+08, 5.489325615003794E+06,
2460945.500000000, A.D. 2025-Sep-27 00:00:00.0000, -2.733850817108222E+07, -6.942399757387346E+08, 5.482813663249046E+06,
2460952.500000000, A.D. 2025-Oct-04 00:00:00.0000, -1.970324478756800E+07, -6.946894641482168E+08, 5.475507676731795E+06,
2460959.500000000, A.D. 2025-Oct-11 00:00:00.0000, -1.206511868673407E+07, -6.950385519734819E+08, 5.467409352508008E+06,
2460966.500000000, A.D. 2025-Oct-18 00:00:00.0000, -4.425234293598877E+06, -6.952872631821065E+08, 5.458520449929774E+06,
2460973.500000000, A.D. 2025-Oct-25 00:00:00.0000, 3.215305147833455E+06, -6.954356289936843E+08, 5.448842801473796E+06,
2460980.500000000, A.D. 2025-Nov-01 00:00:00.0000, 1.085539738830519E+07, -6.954836879466794E+08, 5.438378317595333E+06,
2460987.500000000, A.D. 2025-Nov-08 00:00:00.0000, 1.849394101910830E+07, -6.954314860882094E+08, 5.427128979704887E+06,
2460994.500000000, A.D. 2025-Nov-15 00:00:00.0000, 2.612983549788600E+07, -6.952790773449595E+08, 5.415096802728921E+06,
2461001.500000000, A.D. 2025-Nov-22 00:00:00.0000, 3.376198175711762E+07, -6.950265238548629E+08, 5.402283748100966E+06,
2461008.500000000, A.D. 2025-Nov-29 00:00:00.0000, 4.138928324196138E+07, -6.946738951242992E+08, 5.388691693801969E+06,
2461015.500000000, A.D. 2025-Dec-06 00:00:00.0000, 4.901064509982432E+07, -6.942212661463828E+08, 5.374322659030616E+06,
2461022.500000000, A.D. 2025-Dec-13 00:00:00.0000, 5.662497195526198E+07, -6.936687178500224E+08, 5.359178968118280E+06,
2461029.500000000, A.D. 2025-Dec-20 00:00:00.0000, 6.423116776349012E+07, -6.930163388561732E+08, 5.343263116771549E+06,
2461036.500000000, A.D. 2025-Dec-27 00:00:00.0000, 7.182813666867240E+07, -6.922642259496710E+08, 5.326577650852054E+06,
2461043.500000000, A.D. 2026-Jan-03 00:00:00.0000, 7.941478340764529E+07, -6.914124838815513E+08, 5.309125141218722E+06,
2461050.500000000, A.D. 2026-Jan-10 00:00:00.0000, 8.699001336882445E+07, -6.904612251797775E+08, 5.290908189111948E+06,
2461057.500000000, A.D. 2026-Jan-17 00:00:00.0000, 9.455273253898022E+07, -6.894105700588738E+08, 5.271929433311909E+06,
2461064.500000000, A.D. 2026-Jan-24 00:00:00.0000, 1.021018474160552E+08, -6.882606464047533E+08, 5.252191553846806E+06,
2461071.500000000, A.D. 2026-Jan-31 00:00:00.0000, 1.096362649117424E+08, -6.870115898412831E+08, 5.231697269579262E+06,
2461078.500000000, A.D. 2026-Feb-07 00:00:00.0000, 1.171548923055626E+08, -6.856635439352100E+08, 5.210449319452137E+06,
2461085.500000000, A.D. 2026-Feb-14 00:00:00.0000, 1.246566375036177E+08, -6.842166605541906E+08, 5.188450403051138E+06,
2461092.500000000, A.D. 2026-Feb-21 00:00:00.0000, 1.321404099895630E+08, -6.826710998004601E+08, 5.165703092231959E+06,
2461099.500000000, A.D. 2026-Feb-28 00:00:00.0000, 1.396051213827834E+08, -6.810270283662577E+08, 5.142209907695711E+06,
2461106.500000000, A.D. 2026-Mar-07 00:00:00.0000, 1.470496835449980E+08, -6.792846182604682E+08, 5.117973590046257E+06,
2461113.500000000, A.D. 2026-Mar-14 00:00:00.0000, 1.544730070110390E+08, -6.774440482387033E+08, 5.092997120162040E+06,
2461120.500000000, A.D. 2026-Mar-21 00:00:00.0000, 1.618740015268956E+08, -6.755055050387616E+08, 5.067283562281191E+06,
2461127.500000000, A.D. 2026-Mar-28 00:00:00.0000, 1.692515766857106E+08, -6.734691833929570E+08, 5.040835998306364E+06,
2461134.500000000, A.D. 2026-Apr-04 00:00:00.0000, 1.766046420579925E+08, -6.713352857829896E+08, 5.013657529950619E+06,
2461141.500000000, A.D. 2026-Apr-11 00:00:00.0000, 1.839321070899720E+08, -6.691040222972920E+08, 4.985751294370443E+06,
2461148.500000000, A.D. 2026-Apr-18 00:00:00.0000, 1.912328809295101E+08, -6.667756105974860E+08, 4.957120478324860E+06,
2461155.500000000, A.D. 2026-Apr-25 00:00:00.0000, 1.985058722256542E+08, -6.643502759791819E+08, 4.927768328053206E+06,
2461162.500000000, A.D. 2026-May-02 00:00:00.0000, 2.057499889329552E+08, -6.618282515566469E+08, 4.897698149812460E+06,
2461169.500000000, A.D. 2026-May-09 00:00:00.0000, 2.129641382456753E+08, -6.592097786375475E+08, 4.866913284392208E+06,
2461176.500000000, A.D. 2026-May-16 00:00:00.0000, 2.201472270403836E+08, -6.564951071495101E+08, 4.835417032378852E+06,
2461183.500000000, A.D. 2026-May-23 00:00:00.0000, 2.272981628791688E+08, -6.536844950963389E+08, 4.803212609058082E+06,
2461190.500000000, A.D. 2026-May-30 00:00:00.0000, 2.344158534951353E+08, -6.507782067244610E+08, 4.770303345730960E+06,
2461197.500000000, A.D. 2026-Jun-06 00:00:00.0000, 2.414992044428597E+08, -6.477765126729376E+08, 4.736692898926497E+06,
2461204.500000000, A.D. 2026-Jun-13 00:00:00.0000, 2.485471185799618E+08, -6.446796919078565E+08, 4.702385147374868E+06,
2461211.500000000, A.D. 2026-Jun-20 00:00:00.0000, 2.555584968790151E+08, -6.414880325151119E+08, 4.667384061626226E+06,
2461218.500000000, A.D. 2026-Jun-27 00:00:00.0000, 2.625322388715166E+08, -6.382018316916203E+08, 4.631693674081862E+06,
2461225.500000000, A.D. 2026-Jul-04 00:00:00.0000, 2.694672427238046E+08, -6.348213957099109E+08, 4.595318085853994E+06,
2461232.500000000, A.D. 2026-Jul-11 00:00:00.0000, 2.763624051988487E+08, -6.313470399879632E+08, 4.558261476110667E+06,
2461239.500000000, A.D. 2026-Jul-18 00:00:00.0000, 2.832166215966342E+08, -6.277790892384729E+08, 4.520528107240975E+06,
2461246.500000000, A.D. 2026-Jul-25 00:00:00.0000, 2.900287856976058E+08, -6.241178776947066E+08, 4.482122323583931E+06,
2461253.500000000, A.D. 2026-Aug-01 00:00:00.0000, 2.967977897573400E+08, -6.203637494609281E+08, 4.443048535179555E+06,
2461260.500000000, A.D. 2026-Aug-08 00:00:00.0000, 3.035225247674494E+08, -6.165170590231943E+08, 4.403311163754791E+06,
2461267.500000000, A.D. 2026-Aug-15 00:00:00.0000, 3.102018813978651E+08, -6.125781714701673E+08, 4.362914549606293E+06,
2461274.500000000, A.D. 2026-Aug-22 00:00:00.0000, 3.168347508593823E+08, -6.085474612027488E+08, 4.321862988963097E+06,
2461281.500000000, A.D. 2026-Aug-29 00:00:00.0000, 3.234200233970349E+08, -6.044253105051266E+08, 4.280160999573231E+06,
$$EOE